[{"OBJECT_NAME":"TOMORROW-S1","OBJECT_ID":"2024-149M","EPOCH":"2026-03-09T17:23:34.533600","MEAN_MOTION":15.31198363,"ECCENTRICITY":0.00018188,"INCLINATION":97.3791,"RA_OF_ASC_NODE":149.6044,"ARG_OF_PERICENTER":207.204,"MEAN_ANOMALY":152.9106,"EPHEMERIS_TYPE":0,"CLASSIFICATION_TYPE":"U","NORAD_CAT_ID":60479,"ELEMENT_SET_NO":999,"REV_AT_EPOCH":8686,"BSTAR":0.0002885603,"MEAN_MOTION_DOT":8.62e-5,"MEAN_MOTION_DDOT":0},{"OBJECT_NAME":"STARLINK-35647","OBJECT_ID":"2025-257J","EPOCH":"2026-03-09T17:32:02.587200","MEAN_MOTION":15.30203663,"ECCENTRICITY":9.304e-5,"INCLINATION":53.1609,"RA_OF_ASC_NODE":216.5566,"ARG_OF_PERICENTER":90.4044,"MEAN_ANOMALY":269.7064,"EPHEMERIS_TYPE":0,"CLASSIFICATION_TYPE":"U","NORAD_CAT_ID":66388,"ELEMENT_SET_NO":999,"REV_AT_EPOCH":1973,"BSTAR":0.00083883129,"MEAN_MOTION_DOT":0.0002457,"MEAN_MOTION_DDOT":0}]
